{"type": "FeatureCollection", "features": [ {"type": "Feature", "properties": {"norad_id": 66052, "name": "HRC MONOBLOCK CAMERA", "group": "stations", "lat": 51.321584152514404, "lon": -135.0472423486749, "alt_km": 398.0094010618195, "timestamp": "2025-12-12T09:49:07.501152+00:00", "meta": {"OBJECT_NAME": "HRC MONOBLOCK CAMERA", "OBJECT_ID": "1998-067XR", "EPOCH": "2025-12-12T01:44:18.858336", "MEAN_MOTION": 15.54060412, "ECCENTRICITY": 0.0003436, "INCLINATION": 51.6287, "RA_OF_ASC_NODE": 144.8345, "ARG_OF_PERICENTER": 180.6956, "MEAN_ANOMALY": 179.403, "EPHEMERIS_TYPE": 0, "CLASSIFICATION_TYPE": "U", "NORAD_CAT_ID": 66052, "ELEMENT_SET_NO": 999, "REV_AT_EPOCH": 873, "BSTAR": 0.00072873, "MEAN_MOTION_DOT": 0.00047939, "MEAN_MOTION_DDOT": 0}, "tle": {"line1": "1 66052U 98067XR  25346.07244049  .00047939  00000+0  72873-3 0  9990", "line2": "2 66052  51.6287 144.8345 0003436 180.6956 179.4030 15.54060412  8730"}}, "geometry": {"type": "Point", "coordinates": [-135.0472423486749, 51.321584152514404]}}, {"type": "Feature", "properties": {"norad_id": 66174, "name": "HTV-X1", "group": "stations", "lat": -13.009610235168244, "lon": 133.567773293614, "alt_km": 420.8948043906521, "timestamp": "2025-12-12T09:49:07.501162+00:00", "meta": {"OBJECT_NAME": "HTV-X1", "OBJECT_ID": "2025-241A", "EPOCH": "2025-12-11T21:30:28.324224", "MEAN_MOTION": 15.49521399, "ECCENTRICITY": 0.00032978, "INCLINATION": 51.6307, "RA_OF_ASC_NODE": 146.6565, "ARG_OF_PERICENTER": 237.1442, "MEAN_ANOMALY": 122.9229, "EPHEMERIS_TYPE": 0, "CLASSIFICATION_TYPE": "U", "NORAD_CAT_ID": 66174, "ELEMENT_SET_NO": 999, "REV_AT_EPOCH": 51, "BSTAR": 0.00026380738, "MEAN_MOTION_DOT": 0.00014378, "MEAN_MOTION_DDOT": 0}, "tle": {"line1": "1 66174U 25241A   25345.89616116  .00014378  00000+0  26381-3 0  9990", "line2": "2 66174  51.6307 146.6565 0003297 237.1442 122.9229 15.49521399   516"}}, "geometry": {"type": "Point", "coordinates": [133.567773293614, -13.009610235168244]}}, {"type": "Feature", "properties": {"norad_id": 66515, "name": "SZ-21 MODULE", "group": "stations", "lat": -8.470570970854531, "lon": 8.356619069023651, "alt_km": 381.06427159006125, "timestamp": "2025-12-12T09:49:07.501172+00:00", "meta": {"OBJECT_NAME": "SZ-21 MODULE", "OBJECT_ID": "2025-246C", "EPOCH": "2025-12-12T03:44:14.440416", "MEAN_MOTION": 15.62436812, "ECCENTRICITY": 0.000633, "INCLINATION": 41.4775, "RA_OF_ASC_NODE": 19.6084, "ARG_OF_PERICENTER": 257.16, "MEAN_ANOMALY": 102.8532, "EPHEMERIS_TYPE": 0, "CLASSIFICATION_TYPE": "U", "NORAD_CAT_ID": 66515, "ELEMENT_SET_NO": 999, "REV_AT_EPOCH": 435, "BSTAR": 0.00037242, "MEAN_MOTION_DOT": 0.00033863, "MEAN_MOTION_DDOT": 0}, "tle": {"line1": "1 66515U 25246C   25346.15572269  .00033863  00000+0  37242-3 0  9992", "line2": "2 66515  41.4775  19.6084 0006330 257.1600 102.8532 15.62436812  4355"}}, "geometry": {"type": "Point", "coordinates": [8.356619069023651, -8.470570970854531]}}, {"type": "Feature", "properties": {"norad_id": 66645, "name": "SHENZHOU-22", "group": "stations", "lat": 41.05841154728017, "lon": 99.24545940214735, "alt_km": 380.1736782442904, "timestamp": "2025-12-12T09:49:07.501182+00:00", "meta": {"OBJECT_NAME": "SHENZHOU-22", "OBJECT_ID": "2025-272A", "EPOCH": "2025-12-11T19:37:47.505216", "MEAN_MOTION": 15.59116827, "ECCENTRICITY": 0.00085427, "INCLINATION": 41.4685, "RA_OF_ASC_NODE": 22.304, "ARG_OF_PERICENTER": 22.5495, "MEAN_ANOMALY": 337.5718, "EPHEMERIS_TYPE": 0, "CLASSIFICATION_TYPE": "U", "NORAD_CAT_ID": 66645, "ELEMENT_SET_NO": 999, "REV_AT_EPOCH": 26357, "BSTAR": 0.00035527983, "MEAN_MOTION_DOT": 0.00028382, "MEAN_MOTION_DDOT": 0}, "tle": {"line1": "1 66645U 25272A   25345.81791094  .00028382  00000+0  35528-3 0  9991", "line2": "2 66645  41.4685  22.3040 0008542  22.5495 337.5718 15.59116827263576"}}, "geometry": {"type": "Point", "coordinates": [99.24545940214735, 41.05841154728017]}}, {"type": "Feature", "properties": {"norad_id": 66664, "name": "SOYUZ-MS 28", "group": "stations", "lat": -13.009600142878913, "lon": 133.56778185906714, "alt_km": 420.8949720498822, "timestamp": "2025-12-12T09:49:07.501193+00:00", "meta": {"OBJECT_NAME": "SOYUZ-MS 28", "OBJECT_ID": "2025-275A", "EPOCH": "2025-12-11T21:30:28.324224", "MEAN_MOTION": 15.49521399, "ECCENTRICITY": 0.0003298, "INCLINATION": 51.6307, "RA_OF_ASC_NODE": 146.6565, "ARG_OF_PERICENTER": 237.1442, "MEAN_ANOMALY": 122.9229, "EPHEMERIS_TYPE": 0, "CLASSIFICATION_TYPE": "U", "NORAD_CAT_ID": 66664, "ELEMENT_SET_NO": 999, "REV_AT_EPOCH": 231, "BSTAR": 0.00026381, "MEAN_MOTION_DOT": 0.00014378, "MEAN_MOTION_DDOT": 0}, "tle": {"line1": "1 66664U 25275A   25345.89616116  .00014378  00000+0  26381-3 0  9991", "line2": "2 66664  51.6307 146.6565 0003298 237.1442 122.9229 15.49521399  2311"}}, "geometry": {"type": "Point", "coordinates": [133.56778185906714, -13.009600142878913]}}, {"type": "Feature", "properties": {"norad_id": 66906, "name": "1998-067XS", "group": "stations", "lat": 9.049064785969643, "lon": 151.30577989116134, "alt_km": 417.1182681315013, "timestamp": "2025-12-12T09:49:07.501203+00:00", "meta": {"OBJECT_NAME": "1998-067XS", "OBJECT_ID": "1998-067XS", "EPOCH": "2025-12-11T19:50:50.396352", "MEAN_MOTION": 15.50491702, "ECCENTRICITY": 0.00036759, "INCLINATION": 51.6297, "RA_OF_ASC_NODE": 146.9447, "ARG_OF_PERICENTER": 198.3211, "MEAN_ANOMALY": 161.7647, "EPHEMERIS_TYPE": 0, "CLASSIFICATION_TYPE": "U", "NORAD_CAT_ID": 66906, "ELEMENT_SET_NO": 999, "REV_AT_EPOCH": 147, "BSTAR": 0.00060264305, "MEAN_MOTION_DOT": 0.00034698, "MEAN_MOTION_DDOT": 0}, "tle": {"line1": "1 66906U 98067XS  25345.82697218  .00034698  00000+0  60264-3 0  9999", "line2": "2 66906  51.6297 146.9447 0003675 198.3211 161.7647 15.50491702  1478"}}, "geometry": {"type": "Point", "coordinates": [151.30577989116134, 9.049064785969643]}}, {"type": "Feature", "properties": {"norad_id": 66907, "name": "1998-067XT", "group": "stations", "lat": 19.67077855926417, "lon": 160.47625844461555, "alt_km": 413.87983826523305, "timestamp": "2025-12-12T09:49:07.501213+00:00", "meta": {"OBJECT_NAME": "1998-067XT", "OBJECT_ID": "1998-067XT", "EPOCH": "2025-12-09T12:07:37.114752", "MEAN_MOTION": 15.50864429, "ECCENTRICITY": 0.00048036, "INCLINATION": 51.6307, "RA_OF_ASC_NODE": 158.4423, "ARG_OF_PERICENTER": 208.5081, "MEAN_ANOMALY": 151.5646, "EPHEMERIS_TYPE": 0, "CLASSIFICATION_TYPE": "U", "NORAD_CAT_ID": 66907, "ELEMENT_SET_NO": 999, "REV_AT_EPOCH": 111, "BSTAR": 0.0012921241, "MEAN_MOTION_DOT": 0.00076342, "MEAN_MOTION_DDOT": 0}, "tle": {"line1": "1 66907U 98067XT  25343.50529068  .00076342  00000+0  12921-2 0  9998", "line2": "2 66907  51.6307 158.4423 0004803 208.5081 151.5646 15.50864429  1113"}}, "geometry": {"type": "Point", "coordinates": [160.47625844461555, 19.67077855926417]}}, {"type": "Feature", "properties": {"norad_id": 66908, "name": "1998-067XU", "group": "stations", "lat": 21.222735144724098, "lon": 161.9428462295995, "alt_km": 413.2083672437284, "timestamp": "2025-12-12T09:49:07.501224+00:00", "meta": {"OBJECT_NAME": "1998-067XU", "OBJECT_ID": "1998-067XU", "EPOCH": "2025-12-11T19:47:12.664032", "MEAN_MOTION": 15.51346926, "ECCENTRICITY": 0.00046963, "INCLINATION": 51.6299, "RA_OF_ASC_NODE": 146.928, "ARG_OF_PERICENTER": 220.0254, "MEAN_ANOMALY": 140.039, "EPHEMERIS_TYPE": 0, "CLASSIFICATION_TYPE": "U", "NORAD_CAT_ID": 66908, "ELEMENT_SET_NO": 999, "REV_AT_EPOCH": 147, "BSTAR": 0.0013269788, "MEAN_MOTION_DOT": 0.00079814, "MEAN_MOTION_DDOT": 0}, "tle": {"line1": "1 66908U 98067XU  25345.82445213  .00079814  00000+0  13270-2 0  9990", "line2": "2 66908  51.6299 146.9280 0004696 220.0254 140.0390 15.51346926  1474"}}, "geometry": {"type": "Point", "coordinates": [161.9428462295995, 21.222735144724098]}}, {"type": "Feature", "properties": {"norad_id": 66909, "name": "SILVERSAT", "group": "stations", "lat": 22.661293793942807, "lon": 163.33685570083395, "alt_km": 412.5737209088684, "timestamp": "2025-12-12T09:49:07.501234+00:00", "meta": {"OBJECT_NAME": "SILVERSAT", "OBJECT_ID": "1998-067XV", "EPOCH": "2025-12-11T19:46:46.158240", "MEAN_MOTION": 15.51450033, "ECCENTRICITY": 0.00045562, "INCLINATION": 51.63, "RA_OF_ASC_NODE": 146.926, "ARG_OF_PERICENTER": 222.0234, "MEAN_ANOMALY": 138.0406, "EPHEMERIS_TYPE": 0, "CLASSIFICATION_TYPE": "U", "NORAD_CAT_ID": 66909, "ELEMENT_SET_NO": 999, "REV_AT_EPOCH": 147, "BSTAR": 0.0013718352, "MEAN_MOTION_DOT": 0.00082864, "MEAN_MOTION_DDOT": 0}, "tle": {"line1": "1 66909U 98067XV  25345.82414535  .00082864  00000+0  13718-2 0  9990", "line2": "2 66909  51.6300 146.9260 0004556 222.0234 138.0406 15.51450033  1471"}}, "geometry": {"type": "Point", "coordinates": [163.33685570083395, 22.661293793942807]}}, {"type": "Feature", "properties": {"norad_id": 66910, "name": "1998-067XW", "group": "stations", "lat": 28.58061536272124, "lon": 169.57480074865825, "alt_km": 411.81814071970166, "timestamp": "2025-12-12T09:49:07.501246+00:00", "meta": {"OBJECT_NAME": "1998-067XW", "OBJECT_ID": "1998-067XW", "EPOCH": "2025-12-12T00:22:58.433376", "MEAN_MOTION": 15.51622834, "ECCENTRICITY": 0.0005377, "INCLINATION": 51.6296, "RA_OF_ASC_NODE": 145.9572, "ARG_OF_PERICENTER": 204.7962, "MEAN_ANOMALY": 155.277, "EPHEMERIS_TYPE": 0, "CLASSIFICATION_TYPE": "U", "NORAD_CAT_ID": 66910, "ELEMENT_SET_NO": 999, "REV_AT_EPOCH": 150, "BSTAR": 0.0012086, "MEAN_MOTION_DOT": 0.00073325, "MEAN_MOTION_DDOT": 0}, "tle": {"line1": "1 66910U 98067XW  25346.01595409  .00073325  00000+0  12086-2 0  9993", "line2": "2 66910  51.6296 145.9572 0005377 204.7962 155.2770 15.51622834  1508"}}, "geometry": {"type": "Point", "coordinates": [169.57480074865825, 28.58061536272124]}}]}